{
  "type": "FeatureCollection",
  "features": [
    {
      "type": "Feature",
      "properties": {
        "norad_id": 32088,
        "name": "FENGYUN 1C DEB",
        "group": "fengyun-1c-debris",
        "lat": -3.1403927514528314,
        "lon": 30.98784091428026,
        "alt_km": 1515.1773816555378,
        "timestamp": "2025-12-11T20:41:15.366086+00:00",
        "meta_object_name": "FENGYUN 1C DEB",
        "meta_object_id": "1999-025CQE",
        "meta_epoch": "2025-12-10T09:20:21.764256",
        "meta_mean_motion": 13.25167395,
        "meta_eccentricity": 0.04614879,
        "meta_inclination": 102.3999,
        "meta_ra_of_asc_node": 209.9224,
        "meta_arg_of_pericenter": 2.0508,
        "meta_mean_anomaly": 358.2365,
        "meta_ephemeris_type": 0,
        "meta_classification_type": "U",
        "meta_norad_cat_id": 32088,
        "meta_element_set_no": 999,
        "meta_rev_at_epoch": 59813,
        "meta_bstar": 0.0045517197,
        "meta_mean_motion_dot": 3.447e-05,
        "meta_mean_motion_ddot": 0,
        "tle_line1": "1 32088U 99025CQE 25344.38914079  .00003447  00000+0  45517-2 0  9996",
        "tle_line2": "2 32088 102.3999 209.9224 0461487   2.0508 358.2365 13.25167395598139"
      },
      "geometry": {
        "type": "Point",
        "coordinates": [
          30.98784091428026,
          -3.1403927514528314
        ]
      }
    },
    {
      "type": "Feature",
      "properties": {
        "norad_id": 32089,
        "name": "FENGYUN 1C DEB",
        "group": "fengyun-1c-debris",
        "lat": -2.0209310304154653,
        "lon": -8.22739142822166,
        "alt_km": 898.4299478769371,
        "timestamp": "2025-12-11T20:41:15.366098+00:00",
        "meta_object_name": "FENGYUN 1C DEB",
        "meta_object_id": "1999-025CQF",
        "meta_epoch": "2025-12-07T06:18:49.554720",
        "meta_mean_motion": 14.14051186,
        "meta_eccentricity": 0.01122042,
        "meta_inclination": 98.6543,
        "meta_ra_of_asc_node": 347.0104,
        "meta_arg_of_pericenter": 139.5963,
        "meta_mean_anomaly": 221.3612,
        "meta_ephemeris_type": 0,
        "meta_classification_type": "U",
        "meta_norad_cat_id": 32089,
        "meta_element_set_no": 999,
        "meta_rev_at_epoch": 63138,
        "meta_bstar": 0.00086316915,
        "meta_mean_motion_dot": 1.702e-05,
        "meta_mean_motion_ddot": 0,
        "tle_line1": "1 32089U 99025CQF 25341.26307355  .00001702  00000+0  86317-3 0  9990",
        "tle_line2": "2 32089  98.6543 347.0104 0112204 139.5963 221.3612 14.14051186631383"
      },
      "geometry": {
        "type": "Point",
        "coordinates": [
          -8.22739142822166,
          -2.0209310304154653
        ]
      }
    },
    {
      "type": "Feature",
      "properties": {
        "norad_id": 32093,
        "name": "FENGYUN 1C DEB",
        "group": "fengyun-1c-debris",
        "lat": -3.592380395559733,
        "lon": 18.09794156829301,
        "alt_km": 826.1358054867414,
        "timestamp": "2025-12-11T20:41:15.366108+00:00",
        "meta_object_name": "FENGYUN 1C DEB",
        "meta_object_id": "1999-025CQK",
        "meta_epoch": "2025-12-11T01:27:41.674464",
        "meta_mean_motion": 14.37599237,
        "meta_eccentricity": 0.00794782,
        "meta_inclination": 98.9197,
        "meta_ra_of_asc_node": 197.8321,
        "meta_arg_of_pericenter": 358.4978,
        "meta_mean_anomaly": 1.5957,
        "meta_ephemeris_type": 0,
        "meta_classification_type": "U",
        "meta_norad_cat_id": 32093,
        "meta_element_set_no": 999,
        "meta_rev_at_epoch": 96493,
        "meta_bstar": 0.00061075905,
        "meta_mean_motion_dot": 1.852e-05,
        "meta_mean_motion_ddot": 0,
        "tle_line1": "1 32093U 99025CQK 25345.06089901  .00001852  00000+0  61076-3 0  9992",
        "tle_line2": "2 32093  98.9197 197.8321 0079478 358.4978   1.5957 14.37599237964930"
      },
      "geometry": {
        "type": "Point",
        "coordinates": [
          18.09794156829301,
          -3.592380395559733
        ]
      }
    },
    {
      "type": "Feature",
      "properties": {
        "norad_id": 32094,
        "name": "FENGYUN 1C DEB",
        "group": "fengyun-1c-debris",
        "lat": 54.38221625068476,
        "lon": -36.108031524860465,
        "alt_km": 871.6783259584608,
        "timestamp": "2025-12-11T20:41:15.366120+00:00",
        "meta_object_name": "FENGYUN 1C DEB",
        "meta_object_id": "1999-025CQL",
        "meta_epoch": "2025-12-10T22:17:48.518592",
        "meta_mean_motion": 14.1072297,
        "meta_eccentricity": 0.0034085,
        "meta_inclination": 98.7446,
        "meta_ra_of_asc_node": 335.3907,
        "meta_arg_of_pericenter": 273.8438,
        "meta_mean_anomaly": 85.8836,
        "meta_ephemeris_type": 0,
        "meta_classification_type": "U",
        "meta_norad_cat_id": 32094,
        "meta_element_set_no": 999,
        "meta_rev_at_epoch": 94339,
        "meta_bstar": 0.00055097,
        "meta_mean_motion_dot": 9.47e-06,
        "meta_mean_motion_ddot": 0,
        "tle_line1": "1 32094U 99025CQL 25344.92903378  .00000947  00000+0  55097-3 0  9990",
        "tle_line2": "2 32094  98.7446 335.3907 0034085 273.8438  85.8836 14.10722970943392"
      },
      "geometry": {
        "type": "Point",
        "coordinates": [
          -36.108031524860465,
          54.38221625068476
        ]
      }
    },
    {
      "type": "Feature",
      "properties": {
        "norad_id": 32095,
        "name": "FENGYUN 1C DEB",
        "group": "fengyun-1c-debris",
        "lat": -30.997927282037413,
        "lon": 176.26123253684565,
        "alt_km": 870.0606205912936,
        "timestamp": "2025-12-11T20:41:15.366130+00:00",
        "meta_object_name": "FENGYUN 1C DEB",
        "meta_object_id": "1999-025CQM",
        "meta_epoch": "2025-12-10T18:15:48.775680",
        "meta_mean_motion": 14.1603598,
        "meta_eccentricity": 0.007925,
        "meta_inclination": 98.6416,
        "meta_ra_of_asc_node": 0.4354,
        "meta_arg_of_pericenter": 97.7684,
        "meta_mean_anomaly": 263.2497,
        "meta_ephemeris_type": 0,
        "meta_classification_type": "U",
        "meta_norad_cat_id": 32095,
        "meta_element_set_no": 999,
        "meta_rev_at_epoch": 94789,
        "meta_bstar": 0.00038358282,
        "meta_mean_motion_dot": 7.39e-06,
        "meta_mean_motion_ddot": 0,
        "tle_line1": "1 32095U 99025CQM 25344.76098120  .00000739  00000+0  38358-3 0  9993",
        "tle_line2": "2 32095  98.6416   0.4354 0079250  97.7684 263.2497 14.16035980947892"
      },
      "geometry": {
        "type": "Point",
        "coordinates": [
          176.26123253684565,
          -30.997927282037413
        ]
      }
    },
    {
      "type": "Feature",
      "properties": {
        "norad_id": 32096,
        "name": "FENGYUN 1C DEB",
        "group": "fengyun-1c-debris",
        "lat": 77.48547273077769,
        "lon": -31.184513744260066,
        "alt_km": 871.8784625554044,
        "timestamp": "2025-12-11T20:41:15.366141+00:00",
        "meta_object_name": "FENGYUN 1C DEB",
        "meta_object_id": "1999-025CQN",
        "meta_epoch": "2025-12-11T13:23:11.364288",
        "meta_mean_motion": 13.90183528,
        "meta_eccentricity": 0.01345891,
        "meta_inclination": 99.0751,
        "meta_ra_of_asc_node": 14.5789,
        "meta_arg_of_pericenter": 143.12,
        "meta_mean_anomaly": 217.9308,
        "meta_ephemeris_type": 0,
        "meta_classification_type": "U",
        "meta_norad_cat_id": 32096,
        "meta_element_set_no": 999,
        "meta_rev_at_epoch": 92845,
        "meta_bstar": 0.0016952038,
        "meta_mean_motion_dot": 2.214e-05,
        "meta_mean_motion_ddot": 0,
        "tle_line1": "1 32096U 99025CQN 25345.55777042  .00002214  00000+0  16952-2 0  9994",
        "tle_line2": "2 32096  99.0751  14.5789 0134589 143.1200 217.9308 13.90183528928456"
      },
      "geometry": {
        "type": "Point",
        "coordinates": [
          -31.184513744260066,
          77.48547273077769
        ]
      }
    },
    {
      "type": "Feature",
      "properties": {
        "norad_id": 32098,
        "name": "FENGYUN 1C DEB",
        "group": "fengyun-1c-debris",
        "lat": 25.331599052436182,
        "lon": -25.785021508031008,
        "alt_km": 837.0566700260806,
        "timestamp": "2025-12-11T20:41:15.366152+00:00",
        "meta_object_name": "FENGYUN 1C DEB",
        "meta_object_id": "1999-025CQQ",
        "meta_epoch": "2025-12-07T16:48:26.372736",
        "meta_mean_motion": 14.20247103,
        "meta_eccentricity": 0.01956961,
        "meta_inclination": 98.6122,
        "meta_ra_of_asc_node": 334.2744,
        "meta_arg_of_pericenter": 134.3457,
        "meta_mean_anomaly": 227.3945,
        "meta_ephemeris_type": 0,
        "meta_classification_type": "U",
        "meta_norad_cat_id": 32098,
        "meta_element_set_no": 999,
        "meta_rev_at_epoch": 64156,
        "meta_bstar": 0.00042642559,
        "meta_mean_motion_dot": 1.061e-05,
        "meta_mean_motion_ddot": 0,
        "tle_line1": "1 32098U 99025CQQ 25341.70030524  .00001061  00000+0  42643-3 0  9992",
        "tle_line2": "2 32098  98.6122 334.2744 0195696 134.3457 227.3945 14.20247103641560"
      },
      "geometry": {
        "type": "Point",
        "coordinates": [
          -25.785021508031008,
          25.331599052436182
        ]
      }
    }
  ]
}